{"type": "FeatureCollection", "features": [{"type": "Feature", "properties": {}, "geometry": {"type": "Polygon", "coordinates": [[[-121.13473746971793, 47.332860193901624], [-121.13662309986991, 47.33253907821184], [-121.13731128049322, 47.332372264011326], [-121.14155103927406, 47.33176316581864], [-121.1458294833168, 47.331559519799555], [-121.1460604624058, 47.33155951983966], [-121.15067917214793, 47.33179693683786], [-121.15464632965444, 47.33241305567853], [-121.15694723064573, 47.331164526674556], [-121.16114381078245, 47.32940931999931], [-121.16549601536788, 47.32808631184998], [-121.16995946121729, 47.327208994082], [-121.17011896404229, 47.327185935894], [-121.17474947067238, 47.326759055990884], [-121.17939931286847, 47.32681183528936], [-121.18401893687863, 47.3273437113161], [-121.18464581565604, 47.32748251746005], [-121.18505837979745, 47.32736152515376], [-121.19017728956206, 47.32648332340995], [-121.19073408669206, 47.32642057362195], [-121.19522923562063, 47.326140566688515], [-121.19972987690961, 47.32631084810454], [-121.2041910169957, 47.32692971554203], [-121.20856805721478, 47.3279909820935], [-121.21281723966136, 47.32948403812342], [-121.21341848743435, 47.32972971830432], [-121.21744458833051, 47.33161168861426], [-121.22126564045321, 47.33388123952779], [-121.22154840488322, 47.33406865436209], [-121.22362394703093, 47.33558408705719], [-121.22522257571174, 47.33646031137163], [-121.22581612610719, 47.33686590508621], [-121.23066706391987, 47.337130982302604], [-121.23551565765649, 47.33793207541459], [-121.24024812889317, 47.33925658566032], [-121.24075478856612, 47.339460155527604], [-121.24167651182113, 47.33965011270252], [-121.24413786664516, 47.34039909475863], [-121.24624534555142, 47.340885610439415], [-121.2506001705205, 47.34237277547362], [-121.25478054206589, 47.34429648389561], [-121.2587428319119, 47.346636659001575], [-121.26244568778354, 47.34936887765027], [-121.26371408541425, 47.350522150999794], [-121.26393607513553, 47.35052309847977], [-121.26428652971053, 47.35052840884997], [-121.26826796925965, 47.350827261904094], [-121.26827151054796, 47.35078826769028], [-121.26858613797296, 47.35081684081208], [-121.26911309702807, 47.350890698510774], [-121.26965285984947, 47.3509312139489], [-121.27024628795347, 47.3510116299408], [-121.27024124851978, 47.35104881833461], [-121.27292790627308, 47.35142537578613], [-121.27718995160865, 47.35245310938201], [-121.27867011758443, 47.35296670572702], [-121.27867651259402, 47.35296825678906], [-121.28262212393254, 47.354322319063556], [-121.28642555507534, 47.35603557474205], [-121.28689520650434, 47.35627387478335], [-121.28745935027061, 47.356585192044015], [-121.28816348476472, 47.35685860610755], [-121.2922146376647, 47.3589234121788], [-121.2931190320127, 47.359443467042], [-121.29311509037288, 47.35945032169721], [-121.2933010116071, 47.359543624051035], [-121.29408341206613, 47.359997510293354], [-121.29483640982066, 47.360425623107275], [-121.2950639556566, 47.36055459569105], [-121.295291780701, 47.36067174089939], [-121.29574913021392, 47.36094295143761], [-121.29586168310108, 47.36100674621815], [-121.29586043182188, 47.36100895384527], [-121.29996356707694, 47.363442133480255], [-121.3012675716426, 47.36444566228723], [-121.30163655418573, 47.364677363279284], [-121.30508287005522, 47.36733776392878], [-121.30825625490496, 47.37031844393233], [-121.31112706393904, 47.37359155868405], [-121.31169111085595, 47.37437611793918], [-121.31266329054392, 47.37515505182671], [-121.3159157611475, 47.37835190074659], [-121.31711311320291, 47.37979458885077], [-121.31906856145783, 47.381849293079895], [-121.32171154292583, 47.38521562870463], [-121.32402310713366, 47.388817605591235], [-121.32415245154066, 47.389041932270636], [-121.32583571907071, 47.392253440068394], [-121.32592864986572, 47.39244955785299], [-121.32757299925453, 47.39639290803705], [-121.32883635189118, 47.40047430923052], [-121.32970734233965, 47.404657044128314], [-121.33017813495216, 47.40890348380204], [-121.33024449436076, 47.4131754262192], [-121.3299058235796, 47.41743443991823], [-121.32916516937567, 47.42164220974758], [-121.32802919485928, 47.42576088155834], [-121.32650811954107, 47.429753402749625], [-121.3246156273947, 47.43358385560308], [-121.32386000700107, 47.434805933880575], [-121.32373246430056, 47.435660878773476], [-121.32355613732162, 47.43637524741993], [-121.32280825645746, 47.440565482513584], [-121.32156378488159, 47.44493421041133], [-121.31988564172066, 47.4491553866075], [-121.3177908928574, 47.45318608383597], [-121.31530084084773, 47.456985311907154], [-121.31244080828428, 47.46051443455786], [-121.30923988027823, 47.46373756236293], [-121.30573060867816, 47.46662191771285], [-121.30194868103389, 47.46913816814578], [-121.29793255767186, 47.47126072464414], [-121.29372308057269, 47.472968001862164], [-121.28936305802846, 47.47424263763821], [-121.28489682930373, 47.475071669559284], [-121.28036981372718, 47.47544666678236], [-121.27582804879955, 47.47536381577187], [-121.27131772201521, 47.47482395908144], [-121.2668847011582, 47.47383258678558], [-121.2658899766652, 47.473556799383985], [-121.26369048430726, 47.47283524618661], [-121.2616807409385, 47.472336235750504], [-121.25823383778987, 47.473779360419535], [-121.25385946081111, 47.4751084009401], [-121.25304581868677, 47.475267770762144], [-121.25141650577287, 47.47585914676791], [-121.24706934681458, 47.47696251925392], [-121.24263401256566, 47.47762812570813], [-121.23815447309335, 47.477849367583765], [-121.23367513669716, 47.47762405158046], [-121.2292404096634, 47.4769544113878], [-121.22489425603963, 47.47584708554137], [-121.2206797617933, 47.4743130516111], [-121.21698159220983, 47.47253259648023], [-121.21491513280463, 47.47301320326789], [-121.21004753459064, 47.47359826051463], [-121.21001016605364, 47.47360069943653], [-121.20510216207099, 47.473653047015105], [-121.20021759924526, 47.47317108294547], [-121.19541447261801, 47.472160529648896], [-121.19074981032826, 47.470633385554414], [-121.19073188826427, 47.47062641574151], [-121.1906311840163, 47.47058110265345], [-121.19002456373316, 47.47061284331571], [-121.18575959471966, 47.470431355872556], [-121.18153095737485, 47.46984695482517], [-121.17737662897753, 47.46886488866371], [-121.17333391943988, 47.46749397729809], [-121.17324058649089, 47.46745731013459], [-121.1721603274739, 47.46701668271279], [-121.1720736615769, 47.46698001640189], [-121.17182468550259, 47.46686825763981], [-121.17026264129294, 47.46632298549046], [-121.17008571823794, 47.46625654807006], [-121.16954747427471, 47.466050490468184], [-121.16953158639097, 47.46604429123492], [-121.16885245231752, 47.46585388170442], [-121.16748521080578, 47.46544708921348], [-121.16667564378177, 47.46519219931488], [-121.16669629610634, 47.46512660455798], [-121.16423055135175, 47.46431292557305], [-121.16411715318418, 47.464314523375705], [-121.16382797863018, 47.464317174917404], [-121.15925115935433, 47.46412621203736], [-121.15471740057677, 47.46347140454473], [-121.15401228010592, 47.463294977276675], [-121.1538349120477, 47.463282084365815], [-121.14942940230785, 47.462517373349215], [-121.14774223533058, 47.46204830357263], [-121.14752145327456, 47.462030142118785], [-121.1432728041153, 47.461266034914026], [-121.13911680755541, 47.46009874228014], [-121.1390620568314, 47.46008049208564], [-121.13562058994073, 47.45877481639468], [-121.13229721613914, 47.457192517451844], [-121.13222551939815, 47.45715471399154], [-121.12854974659655, 47.454988144490905], [-121.1250954560446, 47.452483507616456], [-121.1249976873056, 47.45240529285976], [-121.12440284741913, 47.45191124138107], [-121.12365435214605, 47.451406849660465], [-121.11953893058168, 47.44784129117453], [-121.11950520105468, 47.44780829482293], [-121.11638153709835, 47.444423069590094], [-121.11361991655242, 47.44073654299323], [-121.11358985255943, 47.44069181413853], [-121.11126564473783, 47.436829578057335], [-121.10933908240975, 47.43275438884197], [-121.10782945802026, 47.42850705511979], [-121.10782065894026, 47.428477723829786], [-121.10763187262737, 47.4276881105667], [-121.10450180832736, 47.42526004025059], [-121.10123030229629, 47.42215060853039], [-121.09828638898607, 47.41872939650015], [-121.09569962469766, 47.41503075244453], [-121.09564826271365, 47.41494886348713], [-121.0933164531738, 47.41074909208264], [-121.09144513720585, 47.406324886828784], [-121.09005559632784, 47.40172656194591], [-121.08916363307648, 47.397006411827704], [-121.08915074823948, 47.3969104125418], [-121.08877594453885, 47.3924345624104], [-121.08877239064586, 47.392329044345004], [-121.0888023068358, 47.388578528966185], [-121.08914413182694, 47.38484350336244], [-121.08916408014895, 47.38469429767564], [-121.08995547678148, 47.38038377573262], [-121.09116201495013, 47.3761705615559], [-121.09146095544746, 47.37541385782426], [-121.09151872149982, 47.37513779784109], [-121.09155028978982, 47.375016788009994], [-121.09289151065315, 47.370753768669864], [-121.09307787259394, 47.37031793050738], [-121.09343338931482, 47.36875569967483], [-121.09399119860973, 47.36707882550809], [-121.09401050633151, 47.366986845029125], [-121.09535993632527, 47.36271988716311], [-121.09545646770727, 47.3624602801052], [-121.0972546194244, 47.35828311177321], [-121.09946479690653, 47.35430854256774], [-121.10206447190586, 47.35057708510858], [-121.10502714604246, 47.34712677398755], [-121.10832262090118, 47.34399277808341], [-121.11191730584288, 47.34120704208702], [-121.11577456039235, 47.33879796089037], [-121.11985506771329, 47.336790090158594], [-121.12411723536302, 47.33520389603518], [-121.1285176192427, 47.33405554653132], [-121.13058635243698, 47.333733848336955], [-121.13233328982444, 47.3333370225166], [-121.13232651245752, 47.33330743963975], [-121.13295011704052, 47.33316457330885], [-121.13351878290206, 47.33306773166141], [-121.13413355284614, 47.33292808350393], [-121.13473140046914, 47.33282499583983], [-121.13473746971793, 47.332860193901624]]]}}]}